[{"OBJECT_NAME":"ONEWEB-0442","OBJECT_ID":"2022-012Q","EPOCH":"2026-02-09T22:27:15.959232","MEAN_MOTION":13.17655974,"ECCENTRICITY":0.0002437,"INCLINATION":87.91,"RA_OF_ASC_NODE":31.1572,"ARG_OF_PERICENTER":78.3798,"MEAN_ANOMALY":281.7607,"EPHEMERIS_TYPE":0,"CLASSIFICATION_TYPE":"U","NORAD_CAT_ID":51636,"ELEMENT_SET_NO":999,"REV_AT_EPOCH":19691,"BSTAR":6.19e-5,"MEAN_MOTION_DOT":3.7e-7,"MEAN_MOTION_DDOT":0},{"OBJECT_NAME":"ONEWEB-0443","OBJECT_ID":"2022-012R","EPOCH":"2026-02-09T22:55:13.957824","MEAN_MOTION":13.17651422,"ECCENTRICITY":0.0001678,"INCLINATION":87.91,"RA_OF_ASC_NODE":31.1561,"ARG_OF_PERICENTER":74.338,"MEAN_ANOMALY":285.7936,"EPHEMERIS_TYPE":0,"CLASSIFICATION_TYPE":"U","NORAD_CAT_ID":51637,"ELEMENT_SET_NO":999,"REV_AT_EPOCH":19696,"BSTAR":5.581e-5,"MEAN_MOTION_DOT":3.5e-7,"MEAN_MOTION_DDOT":0},{"OBJECT_NAME":"ONEWEB-0444","OBJECT_ID":"2022-012S","EPOCH":"2026-02-10T02:43:25.455648","MEAN_MOTION":13.10373803,"ECCENTRICITY":0.0001818,"INCLINATION":87.8753,"RA_OF_ASC_NODE":61.5898,"ARG_OF_PERICENTER":92.4814,"MEAN_ANOMALY":267.6522,"EPHEMERIS_TYPE":0,"CLASSIFICATION_TYPE":"U","NORAD_CAT_ID":51638,"ELEMENT_SET_NO":999,"REV_AT_EPOCH":19269,"BSTAR":0.0017018,"MEAN_MOTION_DOT":6.07e-6,"MEAN_MOTION_DDOT":0},{"OBJECT_NAME":"ONEWEB-0445","OBJECT_ID":"2022-012T","EPOCH":"2026-02-09T23:34:34.127616","MEAN_MOTION":13.1036921,"ECCENTRICITY":0.0002016,"INCLINATION":87.8765,"RA_OF_ASC_NODE":61.5918,"ARG_OF_PERICENTER":96.9361,"MEAN_ANOMALY":263.1995,"EPHEMERIS_TYPE":0,"CLASSIFICATION_TYPE":"U","NORAD_CAT_ID":51639,"ELEMENT_SET_NO":999,"REV_AT_EPOCH":19268,"BSTAR":0.00015459,"MEAN_MOTION_DOT":6.7e-7,"MEAN_MOTION_DDOT":0},{"OBJECT_NAME":"ONEWEB-0446","OBJECT_ID":"2022-012U","EPOCH":"2026-02-10T02:41:01.977216","MEAN_MOTION":13.10374052,"ECCENTRICITY":0.0002008,"INCLINATION":87.8752,"RA_OF_ASC_NODE":61.6062,"ARG_OF_PERICENTER":95.046,"MEAN_ANOMALY":265.0896,"EPHEMERIS_TYPE":0,"CLASSIFICATION_TYPE":"U","NORAD_CAT_ID":51640,"ELEMENT_SET_NO":999,"REV_AT_EPOCH":19268,"BSTAR":0.001659,"MEAN_MOTION_DOT":5.92e-6,"MEAN_MOTION_DDOT":0},{"OBJECT_NAME":"ONEWEB-0448","OBJECT_ID":"2022-012V","EPOCH":"2026-02-10T00:58:14.955168","MEAN_MOTION":13.10373109,"ECCENTRICITY":0.0001813,"INCLINATION":87.875,"RA_OF_ASC_NODE":61.6193,"ARG_OF_PERICENTER":91.6985,"MEAN_ANOMALY":268.435,"EPHEMERIS_TYPE":0,"CLASSIFICATION_TYPE":"U","NORAD_CAT_ID":51641,"ELEMENT_SET_NO":999,"REV_AT_EPOCH":19264,"BSTAR":0.002038,"MEAN_MOTION_DOT":7.24e-6,"MEAN_MOTION_DDOT":0},{"OBJECT_NAME":"ONEWEB-0449","OBJECT_ID":"2022-012W","EPOCH":"2026-02-10T01:05:25.152000","MEAN_MOTION":13.10372396,"ECCENTRICITY":0.0002055,"INCLINATION":87.8757,"RA_OF_ASC_NODE":61.5938,"ARG_OF_PERICENTER":80.1618,"MEAN_ANOMALY":279.9741,"EPHEMERIS_TYPE":0,"CLASSIFICATION_TYPE":"U","NORAD_CAT_ID":51642,"ELEMENT_SET_NO":999,"REV_AT_EPOCH":19265,"BSTAR":0.0019509,"MEAN_MOTION_DOT":6.94e-6,"MEAN_MOTION_DDOT":0},{"OBJECT_NAME":"ONEWEB-0451","OBJECT_ID":"2022-012X","EPOCH":"2026-02-10T00:22:41.130048","MEAN_MOTION":13.17647374,"ECCENTRICITY":0.0001918,"INCLINATION":87.9112,"RA_OF_ASC_NODE":31.0942,"ARG_OF_PERICENTER":84.3285,"MEAN_ANOMALY":275.8065,"EPHEMERIS_TYPE":0,"CLASSIFICATION_TYPE":"U","NORAD_CAT_ID":51643,"ELEMENT_SET_NO":999,"REV_AT_EPOCH":19691,"BSTAR":6.5362e-5,"MEAN_MOTION_DOT":3.8e-7,"MEAN_MOTION_DDOT":0},{"OBJECT_NAME":"ONEWEB-0452","OBJECT_ID":"2022-012Y","EPOCH":"2026-02-09T22:30:55.079136","MEAN_MOTION":13.17650077,"ECCENTRICITY":0.0001787,"INCLINATION":87.91,"RA_OF_ASC_NODE":31.1591,"ARG_OF_PERICENTER":77.4202,"MEAN_ANOMALY":282.7129,"EPHEMERIS_TYPE":0,"CLASSIFICATION_TYPE":"U","NORAD_CAT_ID":51644,"ELEMENT_SET_NO":999,"REV_AT_EPOCH":19691,"BSTAR":0.00010603,"MEAN_MOTION_DOT":5.4e-7,"MEAN_MOTION_DDOT":0},{"OBJECT_NAME":"ONEWEB-0456","OBJECT_ID":"2022-012AA","EPOCH":"2026-02-10T03:09:43.199136","MEAN_MOTION":13.10372572,"ECCENTRICITY":0.0001721,"INCLINATION":87.8767,"RA_OF_ASC_NODE":61.5525,"ARG_OF_PERICENTER":93.9255,"MEAN_ANOMALY":266.2069,"EPHEMERIS_TYPE":0,"CLASSIFICATION_TYPE":"U","NORAD_CAT_ID":51646,"ELEMENT_SET_NO":999,"REV_AT_EPOCH":19270,"BSTAR":0.00084075,"MEAN_MOTION_DOT":3.06e-6,"MEAN_MOTION_DDOT":0},{"OBJECT_NAME":"ONEWEB-0457","OBJECT_ID":"2022-012AB","EPOCH":"2026-02-10T02:36:14.870016","MEAN_MOTION":13.10375629,"ECCENTRICITY":0.0002332,"INCLINATION":87.8753,"RA_OF_ASC_NODE":61.5946,"ARG_OF_PERICENTER":91.9838,"MEAN_ANOMALY":268.1557,"EPHEMERIS_TYPE":0,"CLASSIFICATION_TYPE":"U","NORAD_CAT_ID":51647,"ELEMENT_SET_NO":999,"REV_AT_EPOCH":19270,"BSTAR":0.0012858,"MEAN_MOTION_DOT":4.62e-6,"MEAN_MOTION_DDOT":0},{"OBJECT_NAME":"ONEWEB-0458","OBJECT_ID":"2022-012AC","EPOCH":"2026-02-10T03:07:19.154784","MEAN_MOTION":13.10369638,"ECCENTRICITY":0.0001816,"INCLINATION":87.8756,"RA_OF_ASC_NODE":61.5687,"ARG_OF_PERICENTER":87.1949,"MEAN_ANOMALY":272.9386,"EPHEMERIS_TYPE":0,"CLASSIFICATION_TYPE":"U","NORAD_CAT_ID":51648,"ELEMENT_SET_NO":999,"REV_AT_EPOCH":19266,"BSTAR":0.0010608,"MEAN_MOTION_DOT":3.83e-6,"MEAN_MOTION_DDOT":0},{"OBJECT_NAME":"ONEWEB-0461","OBJECT_ID":"2022-012AD","EPOCH":"2026-02-10T00:51:50.890752","MEAN_MOTION":13.17648196,"ECCENTRICITY":0.0001978,"INCLINATION":87.9112,"RA_OF_ASC_NODE":31.1053,"ARG_OF_PERICENTER":88.8839,"MEAN_ANOMALY":271.2519,"EPHEMERIS_TYPE":0,"CLASSIFICATION_TYPE":"U","NORAD_CAT_ID":51649,"ELEMENT_SET_NO":999,"REV_AT_EPOCH":19714,"BSTAR":0.00011913,"MEAN_MOTION_DOT":5.9e-7,"MEAN_MOTION_DDOT":0},{"OBJECT_NAME":"ONEWEB-0463","OBJECT_ID":"2022-012AE","EPOCH":"2026-02-10T00:25:07.095936","MEAN_MOTION":13.17650402,"ECCENTRICITY":0.000198,"INCLINATION":87.9097,"RA_OF_ASC_NODE":31.1447,"ARG_OF_PERICENTER":88.6662,"MEAN_ANOMALY":271.4697,"EPHEMERIS_TYPE":0,"CLASSIFICATION_TYPE":"U","NORAD_CAT_ID":51650,"ELEMENT_SET_NO":999,"REV_AT_EPOCH":19692,"BSTAR":1.4261e-5,"MEAN_MOTION_DOT":1.8e-7,"MEAN_MOTION_DDOT":0},{"OBJECT_NAME":"ONEWEB-0464","OBJECT_ID":"2022-012AF","EPOCH":"2026-02-10T01:12:35.663328","MEAN_MOTION":13.10374265,"ECCENTRICITY":0.0001574,"INCLINATION":87.875,"RA_OF_ASC_NODE":61.6156,"ARG_OF_PERICENTER":92.691,"MEAN_ANOMALY":267.4397,"EPHEMERIS_TYPE":0,"CLASSIFICATION_TYPE":"U","NORAD_CAT_ID":51651,"ELEMENT_SET_NO":999,"REV_AT_EPOCH":19267,"BSTAR":0.0014011,"MEAN_MOTION_DOT":5.02e-6,"MEAN_MOTION_DDOT":0},{"OBJECT_NAME":"ONEWEB-0468","OBJECT_ID":"2022-012AG","EPOCH":"2026-02-10T01:22:10.000416","MEAN_MOTION":13.10365609,"ECCENTRICITY":0.0001436,"INCLINATION":87.8746,"RA_OF_ASC_NODE":61.6081,"ARG_OF_PERICENTER":88.3377,"MEAN_ANOMALY":271.7915,"EPHEMERIS_TYPE":0,"CLASSIFICATION_TYPE":"U","NORAD_CAT_ID":51652,"ELEMENT_SET_NO":999,"REV_AT_EPOCH":19265,"BSTAR":0.0035102,"MEAN_MOTION_DOT":1.238e-5,"MEAN_MOTION_DDOT":0},{"OBJECT_NAME":"ONEWEB-0473","OBJECT_ID":"2022-012AH","EPOCH":"2026-02-10T01:00:38.393856","MEAN_MOTION":13.10372612,"ECCENTRICITY":0.0001791,"INCLINATION":87.875,"RA_OF_ASC_NODE":61.6135,"ARG_OF_PERICENTER":89.7547,"MEAN_ANOMALY":270.3786,"EPHEMERIS_TYPE":0,"CLASSIFICATION_TYPE":"U","NORAD_CAT_ID":51653,"ELEMENT_SET_NO":999,"REV_AT_EPOCH":19265,"BSTAR":0.0020166,"MEAN_MOTION_DOT":7.17e-6,"MEAN_MOTION_DDOT":0},{"OBJECT_NAME":"ONEWEB-0474","OBJECT_ID":"2022-012AJ","EPOCH":"2026-02-10T02:38:38.145408","MEAN_MOTION":13.1037497,"ECCENTRICITY":0.0001575,"INCLINATION":87.8761,"RA_OF_ASC_NODE":61.572,"ARG_OF_PERICENTER":92.1842,"MEAN_ANOMALY":267.9465,"EPHEMERIS_TYPE":0,"CLASSIFICATION_TYPE":"U","NORAD_CAT_ID":51654,"ELEMENT_SET_NO":999,"REV_AT_EPOCH":19265,"BSTAR":0.0014656,"MEAN_MOTION_DOT":5.24e-6,"MEAN_MOTION_DDOT":0},{"OBJECT_NAME":"ONEWEB-0475","OBJECT_ID":"2022-012AK","EPOCH":"2026-02-09T22:52:46.222464","MEAN_MOTION":13.17650676,"ECCENTRICITY":0.000132,"INCLINATION":87.9103,"RA_OF_ASC_NODE":31.1482,"ARG_OF_PERICENTER":72.0483,"MEAN_ANOMALY":288.0793,"EPHEMERIS_TYPE":0,"CLASSIFICATION_TYPE":"U","NORAD_CAT_ID":51655,"ELEMENT_SET_NO":999,"REV_AT_EPOCH":19693,"BSTAR":0.0002165,"MEAN_MOTION_DOT":9.7e-7,"MEAN_MOTION_DDOT":0},{"OBJECT_NAME":"ONEWEB-0490","OBJECT_ID":"2022-138A","EPOCH":"2026-02-09T20:06:58.021056","MEAN_MOTION":13.19725216,"ECCENTRICITY":0.0001608,"INCLINATION":87.9259,"RA_OF_ASC_NODE":330.3138,"ARG_OF_PERICENTER":80.4385,"MEAN_ANOMALY":279.6929,"EPHEMERIS_TYPE":0,"CLASSIFICATION_TYPE":"U","NORAD_CAT_ID":54113,"ELEMENT_SET_NO":999,"REV_AT_EPOCH":16003,"BSTAR":-0.00095969906,"MEAN_MOTION_DOT":-3.71e-6,"MEAN_MOTION_DDOT":0},{"OBJECT_NAME":"ONEWEB-0492","OBJECT_ID":"2022-138B","EPOCH":"2026-02-09T20:43:21.877824","MEAN_MOTION":13.19723426,"ECCENTRICITY":0.0001686,"INCLINATION":87.9252,"RA_OF_ASC_NODE":330.3187,"ARG_OF_PERICENTER":85.4574,"MEAN_ANOMALY":274.6751,"EPHEMERIS_TYPE":0,"CLASSIFICATION_TYPE":"U","NORAD_CAT_ID":54114,"ELEMENT_SET_NO":999,"REV_AT_EPOCH":16004,"BSTAR":-0.00021635,"MEAN_MOTION_DOT":-7.4e-7,"MEAN_MOTION_DDOT":0},{"OBJECT_NAME":"ONEWEB-0495","OBJECT_ID":"2022-138C","EPOCH":"2026-02-09T20:11:32.291808","MEAN_MOTION":13.19724687,"ECCENTRICITY":0.0001102,"INCLINATION":87.9248,"RA_OF_ASC_NODE":330.3255,"ARG_OF_PERICENTER":86.7802,"MEAN_ANOMALY":273.3457,"EPHEMERIS_TYPE":0,"CLASSIFICATION_TYPE":"U","NORAD_CAT_ID":54115,"ELEMENT_SET_NO":999,"REV_AT_EPOCH":16002,"BSTAR":-6.8272e-5,"MEAN_MOTION_DOT":-1.4e-7,"MEAN_MOTION_DDOT":0},{"OBJECT_NAME":"ONEWEB-0497","OBJECT_ID":"2022-138D","EPOCH":"2026-02-10T03:46:24.853440","MEAN_MOTION":13.19724336,"ECCENTRICITY":0.0001709,"INCLINATION":87.925,"RA_OF_ASC_NODE":330.2524,"ARG_OF_PERICENTER":79.7196,"MEAN_ANOMALY":280.4129,"EPHEMERIS_TYPE":0,"CLASSIFICATION_TYPE":"U","NORAD_CAT_ID":54116,"ELEMENT_SET_NO":999,"REV_AT_EPOCH":16005,"BSTAR":-0.0007679,"MEAN_MOTION_DOT":-2.94e-6,"MEAN_MOTION_DDOT":0},{"OBJECT_NAME":"ONEWEB-0499","OBJECT_ID":"2022-138E","EPOCH":"2026-02-09T20:05:49.978464","MEAN_MOTION":13.19727111,"ECCENTRICITY":0.00016254,"INCLINATION":87.9248,"RA_OF_ASC_NODE":330.3264,"ARG_OF_PERICENTER":73.7649,"MEAN_ANOMALY":286.3662,"EPHEMERIS_TYPE":0,"CLASSIFICATION_TYPE":"U","NORAD_CAT_ID":54117,"ELEMENT_SET_NO":999,"REV_AT_EPOCH":16002,"BSTAR":8.2340934e-5,"MEAN_MOTION_DOT":4.6e-7,"MEAN_MOTION_DDOT":0}]
